IRIDIUM 144             
1 43249U 18030A   25024.75763201  .00000799  00000+0  27822-3 0  9996
2 43249  86.4012 142.9659 0002069  98.7453 261.3977 14.34218137357266
IRIDIUM 149             
1 43250U 18030B   25024.76397528  .00000047  00000+0  96301-5 0  9990
2 43250  86.4014 142.9362 0002203  94.1203 266.0245 14.34217594357282
IRIDIUM 157             
1 43251U 18030C   25024.85277128 -.00000062  00000+0 -29211-4 0  9998
2 43251  86.4015 142.9411 0001840  91.2810 268.8597 14.34216974357277
IRIDIUM 140             
1 43252U 18030D   25024.87178968  .00000729  00000+0  25315-3 0  9991
2 43252  86.4012 142.9470 0002113  99.9757 260.1677 14.34223205357335
IRIDIUM 145             
1 43253U 18030E   25024.85911503 -.00000091  00000+0 -39553-4 0  9994
2 43253  86.4013 142.9255 0002364  97.8390 262.3074 14.34216952357264
IRIDIUM 146             
1 43254U 18030F   25024.84007984  .00000816  00000+0  28431-3 0  9998
2 43254  86.4012 142.9475 0002391 100.3336 259.8129 14.34222931357275
IRIDIUM 148             
1 43255U 18030G   25024.73860535 -.00000054  00000+0 -26497-4 0  9993
2 43255  86.4018 143.0253 0002212  94.4018 265.7430 14.34216955357292
IRIDIUM 142             
1 43256U 18030H   25024.84642891  .00000019  00000+0 -17150-6 0  9997
2 43256  86.4007 142.8873 0002525  94.1165 266.0320 14.34217679357277
